{"type": "FeatureCollection", "features": [ {"type": "Feature", "properties": {"norad_id": 43648, "name": "BEIDOU-3 M15 (C34)", "group": "gnss", "lat": 16.159006715858364, "lon": -41.9854024522814, "alt_km": 21514.65831410517, "timestamp": "2025-12-27T21:25:02.755397+00:00", "meta": {"OBJECT_NAME": "BEIDOU-3 M15 (C34)", "OBJECT_ID": "2018-078B", "EPOCH": "2025-12-27T07:48:48.610368", "MEAN_MOTION": 1.86232284, "ECCENTRICITY": 0.0004082, "INCLINATION": 54.2443, "RA_OF_ASC_NODE": 306.0127, "ARG_OF_PERICENTER": 20.0371, "MEAN_ANOMALY": 339.9874, "EPHEMERIS_TYPE": 0, "CLASSIFICATION_TYPE": "U", "NORAD_CAT_ID": 43648, "ELEMENT_SET_NO": 999, "REV_AT_EPOCH": 4897, "BSTAR": 0, "MEAN_MOTION_DOT": -6e-07, "MEAN_MOTION_DDOT": 0}, "tle": {"line1": "1 43648U 18078B   25361.32556262 -.00000060  00000+0  00000+0 0  9992", "line2": "2 43648  54.2443 306.0127 0004082  20.0371 339.9874  1.86232284 48972"}}, "geometry": {"type": "Point", "coordinates": [-41.9854024522814, 16.159006715858364]}}, {"type": "Feature", "properties": {"norad_id": 43683, "name": "BEIDOU-3 G1 (C59)", "group": "gnss", "lat": 2.6296191080803104, "lon": -162.1153730940138, "alt_km": 35777.69848836932, "timestamp": "2025-12-27T21:25:02.755416+00:00", "meta": {"OBJECT_NAME": "BEIDOU-3 G1 (C59)", "OBJECT_ID": "2018-085A", "EPOCH": "2025-12-27T11:57:18.832032", "MEAN_MOTION": 1.00276338, "ECCENTRICITY": 0.0002014, "INCLINATION": 2.6425, "RA_OF_ASC_NODE": 102.5295, "ARG_OF_PERICENTER": 59.0342, "MEAN_ANOMALY": 253.9772, "EPHEMERIS_TYPE": 0, "CLASSIFICATION_TYPE": "U", "NORAD_CAT_ID": 43683, "ELEMENT_SET_NO": 999, "REV_AT_EPOCH": 2633, "BSTAR": 0, "MEAN_MOTION_DOT": -2.55e-06, "MEAN_MOTION_DDOT": 0}, "tle": {"line1": "1 43683U 18085A   25361.49813463 -.00000255  00000+0  00000+0 0  9992", "line2": "2 43683   2.6425 102.5295 0002014  59.0342 253.9772  1.00276338 26338"}}, "geometry": {"type": "Point", "coordinates": [-162.1153730940138, 2.6296191080803104]}}, {"type": "Feature", "properties": {"norad_id": 43687, "name": "COSMOS 2529 (757)", "group": "gnss", "lat": -6.400356539022371, "lon": -164.7190358375567, "alt_km": 19134.151625158105, "timestamp": "2025-12-27T21:25:02.755434+00:00", "meta": {"OBJECT_NAME": "COSMOS 2529 (757)", "OBJECT_ID": "2018-086A", "EPOCH": "2025-12-26T23:06:55.462752", "MEAN_MOTION": 2.13102033, "ECCENTRICITY": 0.00068493, "INCLINATION": 64.293, "RA_OF_ASC_NODE": 198.4076, "ARG_OF_PERICENTER": 253.3441, "MEAN_ANOMALY": 106.6358, "EPHEMERIS_TYPE": 0, "CLASSIFICATION_TYPE": "U", "NORAD_CAT_ID": 43687, "ELEMENT_SET_NO": 999, "REV_AT_EPOCH": 5561, "BSTAR": 0, "MEAN_MOTION_DOT": 1.18e-06, "MEAN_MOTION_DDOT": 0}, "tle": {"line1": "1 43687U 18086A   25360.96314193  .00000118  00000+0  00000+0 0  9991", "line2": "2 43687  64.2930 198.4076 0006849 253.3441 106.6358  2.13102033 55619"}}, "geometry": {"type": "Point", "coordinates": [-164.7190358375567, -6.400356539022371]}}, {"type": "Feature", "properties": {"norad_id": 43706, "name": "BEIDOU-3 M17 (C36)", "group": "gnss", "lat": -53.99474496793832, "lon": 104.15654472087651, "alt_km": 21520.14961065194, "timestamp": "2025-12-27T21:25:02.755452+00:00", "meta": {"OBJECT_NAME": "BEIDOU-3 M17 (C36)", "OBJECT_ID": "2018-093A", "EPOCH": "2025-12-26T03:36:39.806208", "MEAN_MOTION": 1.86228273, "ECCENTRICITY": 0.00059945, "INCLINATION": 54.1735, "RA_OF_ASC_NODE": 188.1665, "ARG_OF_PERICENTER": 306.9478, "MEAN_ANOMALY": 238.7851, "EPHEMERIS_TYPE": 0, "CLASSIFICATION_TYPE": "U", "NORAD_CAT_ID": 43706, "ELEMENT_SET_NO": 999, "REV_AT_EPOCH": 4831, "BSTAR": 0, "MEAN_MOTION_DOT": 1.19e-06, "MEAN_MOTION_DDOT": 0}, "tle": {"line1": "1 43706U 18093A   25360.15046072  .00000119  00000+0  00000+0 0  9991", "line2": "2 43706  54.1735 188.1665 0005994 306.9478 238.7851  1.86228273 48315"}}, "geometry": {"type": "Point", "coordinates": [104.15654472087651, -53.99474496793832]}}, {"type": "Feature", "properties": {"norad_id": 43707, "name": "BEIDOU-3 M18 (C37)", "group": "gnss", "lat": 5.160436342761732, "lon": -168.1564197667956, "alt_km": 21511.45846727769, "timestamp": "2025-12-27T21:25:02.755472+00:00", "meta": {"OBJECT_NAME": "BEIDOU-3 M18 (C37)", "OBJECT_ID": "2018-093B", "EPOCH": "2025-12-26T19:24:55.355328", "MEAN_MOTION": 1.86226544, "ECCENTRICITY": 0.00060982, "INCLINATION": 54.1738, "RA_OF_ASC_NODE": 188.1361, "ARG_OF_PERICENTER": 353.9736, "MEAN_ANOMALY": 6.054, "EPHEMERIS_TYPE": 0, "CLASSIFICATION_TYPE": "U", "NORAD_CAT_ID": 43707, "ELEMENT_SET_NO": 999, "REV_AT_EPOCH": 4832, "BSTAR": 0, "MEAN_MOTION_DOT": 1.25e-06, "MEAN_MOTION_DDOT": 0}, "tle": {"line1": "1 43707U 18093B   25360.80897402  .00000125  00000+0  00000+0 0  9992", "line2": "2 43707  54.1738 188.1361 0006098 353.9736   6.0540  1.86226544 48328"}}, "geometry": {"type": "Point", "coordinates": [-168.1564197667956, 5.160436342761732]}}, {"type": "Feature", "properties": {"norad_id": 43873, "name": "GPS BIII-1  (PRN 04)", "group": "gnss", "lat": -53.075892572622735, "lon": 33.247007266499196, "alt_km": 20186.162590069314, "timestamp": "2025-12-27T21:25:02.755490+00:00", "meta": {"OBJECT_NAME": "GPS BIII-1  (PRN 04)", "OBJECT_ID": "2018-109A", "EPOCH": "2025-12-26T12:23:38.434848", "MEAN_MOTION": 2.00553927, "ECCENTRICITY": 0.0037609, "INCLINATION": 55.5742, "RA_OF_ASC_NODE": 99.0034, "ARG_OF_PERICENTER": 195.6344, "MEAN_ANOMALY": 174.7569, "EPHEMERIS_TYPE": 0, "CLASSIFICATION_TYPE": "U", "NORAD_CAT_ID": 43873, "ELEMENT_SET_NO": 999, "REV_AT_EPOCH": 5161, "BSTAR": 0, "MEAN_MOTION_DOT": 1.3e-07, "MEAN_MOTION_DDOT": 0}, "tle": {"line1": "1 43873U 18109A   25360.51641707  .00000013  00000+0  00000+0 0  9993", "line2": "2 43873  55.5742  99.0034 0037609 195.6344 174.7569  2.00553927 51612"}}, "geometry": {"type": "Point", "coordinates": [33.247007266499196, -53.075892572622735]}}, {"type": "Feature", "properties": {"norad_id": 44231, "name": "BEIDOU-2 G8 (C01)", "group": "gnss", "lat": 1.3411522500375486, "lon": -157.6560461707659, "alt_km": 35808.53083391837, "timestamp": "2025-12-27T21:25:02.755508+00:00", "meta": {"OBJECT_NAME": "BEIDOU-2 G8 (C01)", "OBJECT_ID": "2019-027A", "EPOCH": "2025-12-27T13:02:38.745600", "MEAN_MOTION": 1.00273438, "ECCENTRICITY": 0.0008371, "INCLINATION": 1.6971, "RA_OF_ASC_NODE": 74.745, "ARG_OF_PERICENTER": 258.6879, "MEAN_ANOMALY": 103.0306, "EPHEMERIS_TYPE": 0, "CLASSIFICATION_TYPE": "U", "NORAD_CAT_ID": 44231, "ELEMENT_SET_NO": 999, "REV_AT_EPOCH": 2436, "BSTAR": 0, "MEAN_MOTION_DOT": -2.25e-06, "MEAN_MOTION_DDOT": 0}, "tle": {"line1": "1 44231U 19027A   25361.54350400 -.00000225  00000+0  00000+0 0  9999", "line2": "2 44231   1.6971  74.7450 0008371 258.6879 103.0306  1.00273438 24367"}}, "geometry": {"type": "Point", "coordinates": [-157.6560461707659, 1.3411522500375486]}}, {"type": "Feature", "properties": {"norad_id": 44299, "name": "COSMOS 2534 (758)", "group": "gnss", "lat": 45.85060552613702, "lon": -11.269932898398167, "alt_km": 19144.787451381842, "timestamp": "2025-12-27T21:25:02.755528+00:00", "meta": {"OBJECT_NAME": "COSMOS 2534 (758)", "OBJECT_ID": "2019-030A", "EPOCH": "2025-12-27T11:49:04.620576", "MEAN_MOTION": 2.13102152, "ECCENTRICITY": 0.0008619, "INCLINATION": 64.3665, "RA_OF_ASC_NODE": 198.3955, "ARG_OF_PERICENTER": 283.8926, "MEAN_ANOMALY": 256.5547, "EPHEMERIS_TYPE": 0, "CLASSIFICATION_TYPE": "U", "NORAD_CAT_ID": 44299, "ELEMENT_SET_NO": 999, "REV_AT_EPOCH": 5126, "BSTAR": 0, "MEAN_MOTION_DOT": 1.23e-06, "MEAN_MOTION_DDOT": 0}, "tle": {"line1": "1 44299U 19030A   25361.49241459  .00000123  00000+0  00000+0 0  9990", "line2": "2 44299  64.3665 198.3955 0008619 283.8926 256.5547  2.13102152 51267"}}, "geometry": {"type": "Point", "coordinates": [-11.269932898398167, 45.85060552613702]}}, {"type": "Feature", "properties": {"norad_id": 44337, "name": "BEIDOU-3 IGSO-2 (C39)", "group": "gnss", "lat": 13.762379531805784, "lon": 170.15699722284413, "alt_km": 35945.28383069413, "timestamp": "2025-12-27T21:25:02.755547+00:00", "meta": {"OBJECT_NAME": "BEIDOU-3 IGSO-2 (C39)", "OBJECT_ID": "2019-035A", "EPOCH": "2025-12-26T08:27:52.331328", "MEAN_MOTION": 1.00266958, "ECCENTRICITY": 0.0037903, "INCLINATION": 55.2292, "RA_OF_ASC_NODE": 160.3818, "ARG_OF_PERICENTER": 202.693, "MEAN_ANOMALY": 338.2763, "EPHEMERIS_TYPE": 0, "CLASSIFICATION_TYPE": "U", "NORAD_CAT_ID": 44337, "ELEMENT_SET_NO": 999, "REV_AT_EPOCH": 2393, "BSTAR": 0, "MEAN_MOTION_DOT": -6e-07, "MEAN_MOTION_DDOT": 0}, "tle": {"line1": "1 44337U 19035A   25360.35268902 -.00000060  00000+0  00000+0 0  9995", "line2": "2 44337  55.2292 160.3818 0037903 202.6930 338.2763  1.00266958 23935"}}, "geometry": {"type": "Point", "coordinates": [170.15699722284413, 13.762379531805784]}}, {"type": "Feature", "properties": {"norad_id": 44506, "name": "GPS BIII-2  (PRN 18)", "group": "gnss", "lat": -1.0948974225583454, "lon": 158.68685667340716, "alt_km": 20036.13891935932, "timestamp": "2025-12-27T21:25:02.755569+00:00", "meta": {"OBJECT_NAME": "GPS BIII-2  (PRN 18)", "OBJECT_ID": "2019-056A", "EPOCH": "2025-12-27T04:57:07.509024", "MEAN_MOTION": 2.00566436, "ECCENTRICITY": 0.0057783, "INCLINATION": 55.7159, "RA_OF_ASC_NODE": 337.979, "ARG_OF_PERICENTER": 198.6912, "MEAN_ANOMALY": 207.4139, "EPHEMERIS_TYPE": 0, "CLASSIFICATION_TYPE": "U", "NORAD_CAT_ID": 44506, "ELEMENT_SET_NO": 999, "REV_AT_EPOCH": 4662, "BSTAR": 0, "MEAN_MOTION_DOT": -6e-07, "MEAN_MOTION_DDOT": 0}, "tle": {"line1": "1 44506U 19056A   25361.20633691 -.00000060  00000+0  00000+0 0  9992", "line2": "2 44506  55.7159 337.9790 0057783 198.6912 207.4139  2.00566436 46623"}}, "geometry": {"type": "Point", "coordinates": [158.68685667340716, -1.0948974225583454]}}]}